{
  "norad_id": 49179,
  "name": "STARLINK-3043",
  "history": [
    {
      "epoch": "2026-03-28T17:45:43.268832Z",
      "apogee_km": 573.6326811581876,
      "perigee_km": 570.4421340946228,
      "latitude_deg": -4.111584338866679e-05,
      "longitude_deg": 113.82200224862103,
      "height_km": 574.3705319861477,
      "semi_major_axis_km": 6950.174407626405,
      "eccentricity": 0.00022953,
      "inclination_deg": 70.0009,
      "raan_deg": 206.4085,
      "arg_perigee_deg": 273.3657,
      "mean_anomaly_deg": 86.7239,
      "mean_motion_rev_day": 14.98335977
    },
    {
      "epoch": "2026-03-29T08:10:55.907904Z",
      "apogee_km": 573.6784709848453,
      "perigee_km": 570.4154986076628,
      "latitude_deg": -6.793418568319382e-06,
      "longitude_deg": -104.58756370322209,
      "height_km": 574.4434633159835,
      "semi_major_axis_km": 6950.183984796254,
      "eccentricity": 0.00023474,
      "inclination_deg": 70.001,
      "raan_deg": 204.8938,
      "arg_perigee_deg": 271.0667,
      "mean_anomaly_deg": 89.0223,
      "mean_motion_rev_day": 14.9833288
    },
    {
      "epoch": "2026-03-30T13:01:21.516096Z",
      "apogee_km": 573.8574544242074,
      "perigee_km": 570.275875471586,
      "latitude_deg": 9.813914476426665e-06,
      "longitude_deg": 178.59220741031706,
      "height_km": 574.4373725166151,
      "semi_major_axis_km": 6950.203664947897,
      "eccentricity": 0.00025766,
      "inclination_deg": 70.0008,
      "raan_deg": 201.8647,
      "arg_perigee_deg": 271.8035,
      "mean_anomaly_deg": 88.2829,
      "mean_motion_rev_day": 14.98326516
    },
    {
      "epoch": "2026-03-30T17:49:45.384096Z",
      "apogee_km": 573.7976970208938,
      "perigee_km": 570.309118447637,
      "latitude_deg": 3.265850781748214e-05,
      "longitude_deg": 105.79096463101364,
      "height_km": 574.5465745171651,
      "semi_major_axis_km": 6950.190407734265,
      "eccentricity": 0.00025097,
      "inclination_deg": 70.0008,
      "raan_deg": 201.3603,
      "arg_perigee_deg": 267.8266,
      "mean_anomaly_deg": 92.2606,
      "mean_motion_rev_day": 14.98330803
    },
    {
      "epoch": "2026-03-31T13:03:22.015584Z",
      "apogee_km": 573.8559044838858,
      "perigee_km": 570.2447261585903,
      "latitude_deg": 1.2917879353636818e-05,
      "longitude_deg": 174.5789090000259,
      "height_km": 574.3664099624241,
      "semi_major_axis_km": 6950.187315321237,
      "eccentricity": 0.00025979,
      "inclination_deg": 70.001,
      "raan_deg": 199.3405,
      "arg_perigee_deg": 273.5246,
      "mean_anomaly_deg": 86.5616,
      "mean_motion_rev_day": 14.98331803
    },
    {
      "epoch": "2026-04-01T09:53:06.876096Z",
      "apogee_km": 573.9220436519845,
      "perigee_km": 570.1870107252735,
      "latitude_deg": -1.1715355386597548e-05,
      "longitude_deg": -140.9013394559131,
      "height_km": 574.4636970809478,
      "semi_major_axis_km": 6950.191527188629,
      "eccentricity": 0.0002687,
      "inclination_deg": 70.0007,
      "raan_deg": 197.1526,
      "arg_perigee_deg": 270.5528,
      "mean_anomaly_deg": 89.5323,
      "mean_motion_rev_day": 14.98330441
    },
    {
      "epoch": "2026-04-02T16:19:39.710208Z",
      "apogee_km": 573.8916822686515,
      "perigee_km": 570.1816795577797,
      "latitude_deg": -1.6563429311837233e-05,
      "longitude_deg": 118.01262403153062,
      "height_km": 574.4545644002405,
      "semi_major_axis_km": 6950.173680913215,
      "eccentricity": 0.0002669,
      "inclination_deg": 69.9999,
      "raan_deg": 193.9536,
      "arg_perigee_deg": 270.2853,
      "mean_anomaly_deg": 89.8,
      "mean_motion_rev_day": 14.98336212
    },
    {
      "epoch": "2026-04-02T16:19:39.711072Z",
      "apogee_km": 573.8918907738616,
      "perigee_km": 570.1814710525696,
      "latitude_deg": -1.3312661721060226e-05,
      "longitude_deg": 118.01262159840086,
      "height_km": 574.454563361474,
      "semi_major_axis_km": 6950.173680913215,
      "eccentricity": 0.00026693,
      "inclination_deg": 69.9999,
      "raan_deg": 193.9536,
      "arg_perigee_deg": 270.2853,
      "mean_anomaly_deg": 89.8,
      "mean_motion_rev_day": 14.98336212
    },
    {
      "epoch": "2026-04-03T16:21:40.359168Z",
      "apogee_km": 573.8981658039593,
      "perigee_km": 570.1659250265711,
      "latitude_deg": -3.685692522846363e-05,
      "longitude_deg": 113.99809152702696,
      "height_km": 574.4873364410415,
      "semi_major_axis_km": 6950.169045415265,
      "eccentricity": 0.0002685,
      "inclination_deg": 70.0009,
      "raan_deg": 191.4288,
      "arg_perigee_deg": 269.138,
      "mean_anomaly_deg": 90.9471,
      "mean_motion_rev_day": 14.98337711
    },
    {
      "epoch": "2026-04-04T06:46:53.213376Z",
      "apogee_km": 573.8643481946265,
      "perigee_km": 570.2295409952831,
      "latitude_deg": -3.679602074981745e-05,
      "longitude_deg": -104.4125860445811,
      "height_km": 574.4840005270238,
      "semi_major_axis_km": 6950.1839445949545,
      "eccentricity": 0.00026149,
      "inclination_deg": 70.0014,
      "raan_deg": 189.9139,
      "arg_perigee_deg": 269.6884,
      "mean_anomaly_deg": 90.3975,
      "mean_motion_rev_day": 14.98332893
    },
    {
      "epoch": "2026-04-05T13:13:27.410016Z",
      "apogee_km": 573.8025217057166,
      "perigee_km": 570.3649425316107,
      "latitude_deg": 4.486867885953044e-05,
      "longitude_deg": 154.4987131439814,
      "height_km": 574.6440875969831,
      "semi_major_axis_km": 6950.220732118663,
      "eccentricity": 0.0002473,
      "inclination_deg": 70.0018,
      "raan_deg": 186.7179,
      "arg_perigee_deg": 265.5515,
      "mean_anomaly_deg": 94.5362,
      "mean_motion_rev_day": 14.98320997
    },
    {
      "epoch": "2026-04-05T16:25:43.633920Z",
      "apogee_km": 573.9113420484746,
      "perigee_km": 570.258305457909,
      "latitude_deg": -4.7485213621314775e-07,
      "longitude_deg": 105.96279248152436,
      "height_km": 574.5626775991147,
      "semi_major_axis_km": 6950.2218237531915,
      "eccentricity": 0.0002628,
      "inclination_deg": 70.0017,
      "raan_deg": 186.3812,
      "arg_perigee_deg": 268.4107,
      "mean_anomaly_deg": 91.6751,
      "mean_motion_rev_day": 14.98320644
    },
    {
      "epoch": "2026-04-06T05:14:47.659488Z",
      "apogee_km": 574.0494196342997,
      "perigee_km": 570.0847452175203,
      "latitude_deg": 4.934386986693515e-05,
      "longitude_deg": -88.17797151335512,
      "height_km": 574.407384604744,
      "semi_major_axis_km": 6950.204082425909,
      "eccentricity": 0.00028522,
      "inclination_deg": 70.001,
      "raan_deg": 185.0336,
      "arg_perigee_deg": 272.5169,
      "mean_anomaly_deg": 87.5664,
      "mean_motion_rev_day": 14.98326381
    },
    {
      "epoch": "2026-04-07T11:41:20.434848Z",
      "apogee_km": 574.1371337368428,
      "perigee_km": 569.9656306698444,
      "latitude_deg": -1.2926123078440837e-05,
      "longitude_deg": 170.73771209289424,
      "height_km": 574.4845230238299,
      "semi_major_axis_km": 6950.188382203343,
      "eccentricity": 0.0003001,
      "inclination_deg": 70.0009,
      "raan_deg": 181.8361,
      "arg_perigee_deg": 269.8457,
      "mean_anomaly_deg": 90.2358,
      "mean_motion_rev_day": 14.98331458
    },
    {
      "epoch": "2026-04-07T11:41:20.435712Z",
      "apogee_km": 574.1374812462618,
      "perigee_km": 569.9652831604244,
      "latitude_deg": -7.508170070715482e-06,
      "longitude_deg": 170.73771044414656,
      "height_km": 574.484523959239,
      "semi_major_axis_km": 6950.188382203343,
      "eccentricity": 0.00030015,
      "inclination_deg": 70.0009,
      "raan_deg": 181.8361,
      "arg_perigee_deg": 269.8457,
      "mean_anomaly_deg": 90.2358,
      "mean_motion_rev_day": 14.98331458
    },
    {
      "epoch": "2026-04-08T13:19:29.645472Z",
      "apogee_km": 574.1659009357763,
      "perigee_km": 569.9362944670393,
      "latitude_deg": -3.2716906243876e-05,
      "longitude_deg": 142.45329544366314,
      "height_km": 574.4815355272353,
      "semi_major_axis_km": 6950.188097701408,
      "eccentricity": 0.00030428,
      "inclination_deg": 70.001,
      "raan_deg": 179.1429,
      "arg_perigee_deg": 269.9224,
      "mean_anomaly_deg": 90.1586,
      "mean_motion_rev_day": 14.9833155
    },
    {
      "epoch": "2026-04-09T11:45:22.303872Z",
      "apogee_km": 574.1671412656169,
      "perigee_km": 569.9155781594127,
      "latitude_deg": 4.113603349331465e-05,
      "longitude_deg": 162.70588886708254,
      "height_km": 574.4940740080633,
      "semi_major_axis_km": 6950.178359712514,
      "eccentricity": 0.00030586,
      "inclination_deg": 70.0008,
      "raan_deg": 176.7861,
      "arg_perigee_deg": 269.3224,
      "mean_anomaly_deg": 90.7585,
      "mean_motion_rev_day": 14.98334699
    },
    {
      "epoch": "2026-04-10T11:47:23.057376Z",
      "apogee_km": 574.1622525547018,
      "perigee_km": 569.9351496113031,
      "latitude_deg": 3.6530956349898576e-05,
      "longitude_deg": 158.6916224203245,
      "height_km": 574.5132618813545,
      "semi_major_axis_km": 6950.185701083003,
      "eccentricity": 0.0003041,
      "inclination_deg": 70.001,
      "raan_deg": 174.262,
      "arg_perigee_deg": 268.9972,
      "mean_anomaly_deg": 91.0839,
      "mean_motion_rev_day": 14.98332325
    },
    {
      "epoch": "2026-04-11T11:49:24.243744Z",
      "apogee_km": 574.2438176292362,
      "perigee_km": 569.8763137931419,
      "latitude_deg": -7.492968811800244e-07,
      "longitude_deg": 154.67503628386137,
      "height_km": 574.515783581841,
      "semi_major_axis_km": 6950.197065711189,
      "eccentricity": 0.0003142,
      "inclination_deg": 70.0004,
      "raan_deg": 171.7374,
      "arg_perigee_deg": 269.2629,
      "mean_anomaly_deg": 90.817,
      "mean_motion_rev_day": 14.9832865
    }
  ]
}